{
 "type": "FeatureCollection",
 "name": "building_footprints_scaffold",
 "features": [
  {
   "type": "Feature",
   "id": "BLDG-001",
   "properties": {
    "id": "BLDG-001",
    "layer": "BUILDING_FOOTPRINT",
    "source_type": "agent_generated_design",
    "confidence": "medium",
    "geometry_role": "design_proposal",
    "name_zh": "开源发布厅(原点社区)",
    "building_type": "mixed_use"
   },
   "geometry": {
    "type": "Polygon",
    "coordinates": [
     [
      [
       116.345862,
       39.982749999999996
      ],
      [
       116.3475,
       39.982749999999996
      ],
      [
       116.3475,
       39.98765
      ],
      [
       116.345862,
       39.98765
      ],
      [
       116.345862,
       39.982749999999996
      ]
     ]
    ]
   }
  },
  {
   "type": "Feature",
   "id": "BLDG-002",
   "properties": {
    "id": "BLDG-002",
    "layer": "BUILDING_FOOTPRINT",
    "source_type": "agent_generated_design",
    "confidence": "medium",
    "geometry_role": "design_proposal",
    "name_zh": "测试验证中心(众智园)",
    "building_type": "lab"
   },
   "geometry": {
    "type": "Polygon",
    "coordinates": [
     [
      [
       116.349138,
       39.996224999999995
      ],
      [
       116.351322,
       39.996224999999995
      ],
      [
       116.351322,
       40.00235
      ],
      [
       116.349138,
       40.00235
      ],
      [
       116.349138,
       39.996224999999995
      ]
     ]
    ]
   }
  },
  {
   "type": "Feature",
   "id": "BLDG-003",
   "properties": {
    "id": "BLDG-003",
    "layer": "BUILDING_FOOTPRINT",
    "source_type": "agent_generated_design",
    "confidence": "medium",
    "geometry_role": "design_proposal",
    "name_zh": "国际路演客厅(大钟寺)",
    "building_type": "office"
   },
   "geometry": {
    "type": "Polygon",
    "coordinates": [
     [
      [
       116.343678,
       39.95825
      ],
      [
       116.345862,
       39.95825
      ],
      [
       116.345862,
       39.9656
      ],
      [
       116.343678,
       39.9656
      ],
      [
       116.343678,
       39.95825
      ]
     ]
    ]
   }
  },
  {
   "type": "Feature",
   "id": "BLDG-004",
   "properties": {
    "id": "BLDG-004",
    "layer": "BUILDING_FOOTPRINT",
    "source_type": "agent_generated_design",
    "confidence": "medium",
    "geometry_role": "design_proposal",
    "name_zh": "AI教育实验室(小月河)",
    "building_type": "education"
   },
   "geometry": {
    "type": "Polygon",
    "coordinates": [
     [
      [
       116.342586,
       39.9674375
      ],
      [
       116.344224,
       39.9674375
      ],
      [
       116.344224,
       39.9754
      ],
      [
       116.342586,
       39.9754
      ],
      [
       116.342586,
       39.9674375
      ]
     ]
    ]
   }
  },
  {
   "type": "Feature",
   "id": "BLDG-005",
   "properties": {
    "id": "BLDG-005",
    "layer": "BUILDING_FOOTPRINT",
    "source_type": "agent_generated_design",
    "confidence": "medium",
    "geometry_role": "design_proposal",
    "name_zh": "孵化加速器(原点社区)",
    "building_type": "incubator"
   },
   "geometry": {
    "type": "Polygon",
    "coordinates": [
     [
      [
       116.348046,
       39.982749999999996
      ],
      [
       116.349684,
       39.982749999999996
      ],
      [
       116.349684,
       39.988875
      ],
      [
       116.348046,
       39.988875
      ],
      [
       116.348046,
       39.982749999999996
      ]
     ]
    ]
   }
  }
 ]
}